NORAD_CAT_ID,OBJECT_NAME,OBJECT_TYPE,EPOCH,MEAN_MOTION,ECCENTRICITY,INCLINATION,RA_OF_ASC_NODE,ARG_OF_PERICENTER,MEAN_ANOMALY,BSTAR,MEAN_MOTION_DOT,MEAN_MOTION_DDOT,TLE_LINE0,TLE_LINE1,TLE_LINE2,SEMIMAJOR_AXIS,PERIOD,APOGEE,PERIGEE,DECAYED
53258.0,STARLINK-4127,PAYLOAD,2022-10-26 14:00:01,15.08848244,0.0002602,53.2162,316.2870000000001,32.2864,186.1524,0.00054076,8.331e-05,0.0,0 STARLINK-4127,1 53258U 22086S   22299.58334491  .00008331  00000-0  54076-3 0  9992,2 53258  53.2162 316.2870 0002602  32.2864 186.1524 15.08848244  1301,6917.855,95.437,541.52,537.92,0.0
53258.0,STARLINK-4127,PAYLOAD,2022-10-26 22:00:00,15.08827318,0.0002354,53.2163,314.7888,34.5615,195.4958,0.0010874,0.00017055,0.0,0 STARLINK-4127,1 53258U 22086S   22299.91667824  .00017055  00000-0  10874-2 0  9998,2 53258  53.2163 314.7888 0002354  34.5615 195.4958 15.08827318  1300,6917.919,95.438,541.413,538.156,0.0
53258.0,STARLINK-4127,PAYLOAD,2022-10-27 14:00:01,15.08849944,0.0002549,53.216,311.7973,32.473,220.8346,0.00041742,6.363e-05,0.0,0 STARLINK-4127,1 53258U 22086S   22300.58335648  .00006363  00000-0  41742-3 0  9999,2 53258  53.2160 311.7973 0002549  32.4730 220.8346 15.08849944 15320,6917.85,95.437,541.4780000000002,537.952,0.0
53258.0,STARLINK-4127,PAYLOAD,2022-10-27 22:00:00,15.08843318,0.0002319999999999,53.216,310.2992,35.7473,229.1132,0.00046811,7.170000000000001e-05,0.0,0 STARLINK-4127,1 53258U 22086S   22300.91667824  .00007170  00000-0  46811-3 0  9999,2 53258  53.2160 310.2992 0002320  35.7473 229.1132 15.08843318  1309,6917.87,95.437,541.34,538.13,0.0
53258.0,STARLINK-4127,PAYLOAD,2022-10-28 14:00:01,15.08862342,0.0002459,53.2157,307.3078,31.3779,256.7542,-0.0031406,-0.00049958,0.0,0 STARLINK-4127,1 53258U 22086S   22301.58335648 -.00049958  00000-0 -31406-2 0  9994,2 53258  53.2157 307.3078 0002459  31.3779 256.7542 15.08862342  1300,6917.812,95.436,541.378,537.976,0.0
53258.0,STARLINK-4127,PAYLOAD,2022-10-28 22:00:01,15.08819983,0.0002236,53.2157,305.8098,34.6951,265.0462,0.0021385,0.00033892,0.0,0 STARLINK-4127,1 53258U 22086S   22301.91668981  .00033892  00000-0  21385-2 0  9993,2 53258  53.2157 305.8098 0002236  34.6951 265.0462 15.08819983 15533,6917.941999999999,95.439,541.3530000000002,538.26,0.0
53258.0,STARLINK-4127,PAYLOAD,2022-10-29 12:00:00,15.08815635,0.0002461999999999,53.2156,303.1931,30.7069,199.2524,0.0030743,0.00048948,0.0,0 STARLINK-4127,1 53258U 22086S   22302.50001157  .00048948  00000-0  30743-2 0  9991,2 53258  53.2156 303.1931 0002462  30.7069 199.2524 15.08815635  1304,6917.955,95.439,541.523,538.117,0.0
53258.0,STARLINK-4127,PAYLOAD,2022-10-29 22:00:01,15.08806411,0.0002205,53.2156,301.3206,33.7707,300.7529,0.0033385999999999,0.00053199,0.0,0 STARLINK-4127,1 53258U 22086S   22302.91668981  .00053199  00000-0  33386-2 0  9990,2 53258  53.2156 301.3206 0002205  33.7707 300.7529 15.08806411  1302,6917.983,95.44,541.373,538.323,0.0
53258.0,STARLINK-4127,PAYLOAD,2022-10-30 00:00:00,15.08822336,0.0002213,53.2158,300.9467,34.2429,33.1061,0.0022708,0.0003602,0.0,0 STARLINK-4127,1 53258U 22086S   22303.00001157  .00036020  00000-0  22708-2 0  9997,2 53258  53.2158 300.9467 0002213  34.2429  33.1061 15.08822336 15693,6917.934,95.439,541.33,538.268,0.0
53258.0,STARLINK-4127,PAYLOAD,2022-10-30 14:00:01,15.08833712,0.0002384,53.2156,298.3293,28.4719,329.1489,-0.00051587,-8.488e-05,0.0,0 STARLINK-4127,1 53258U 22086S   22303.58334491 -.00008488  00000-0 -51587-3 0  9997,2 53258  53.2156 298.3293 0002384  28.4719 329.1489 15.08833712  1309,6917.9,95.438,541.414,538.115,0.0
53258.0,STARLINK-4127,PAYLOAD,2022-10-30 22:00:01,15.08826766,0.0002263,53.2157,296.8315,34.2396,335.0319,0.00079877,0.00012443,0.0,0 STARLINK-4127,1 53258U 22086S   22303.91668981  .00012443  00000-0  79877-3 0  9994,2 53258  53.2157 296.8315 0002263  34.2396 335.0319 15.08826766  1309,6917.920999999999,95.438,541.351,538.22,0.0
53258.0,STARLINK-4127,PAYLOAD,2022-10-31 14:00:01,15.08849368,0.0002526999999999,53.2158,293.8402,33.1992,359.1675,-0.00093859,-0.000152,0.0,0 STARLINK-4127,1 53258U 22086S   22304.58334491 -.00015200  00000-0 -93859-3 0  9996,2 53258  53.2158 293.8402 0002527  33.1992 359.1675 15.08849368  1302,6917.852,95.437,541.465,537.969,0.0
53258.0,STARLINK-4127,PAYLOAD,2022-10-31 22:00:01,15.08834444,0.0002343999999999,53.216,292.3424,36.9997,7.0364,0.00090478,0.00014139,0.0,0 STARLINK-4127,1 53258U 22086S   22304.91668981  .00014139  00000-0  90478-3 0  9999,2 53258  53.2160 292.3424 0002344  36.9997   7.0364 15.08834444  1309,6917.897,95.438,541.384,538.141,0.0
53258.0,STARLINK-4127,PAYLOAD,2022-11-01 14:00:01,15.08841074,0.0002466,53.216,289.351,32.2668,34.8949,-0.00073882,-0.00012028,0.0,0 STARLINK-4127,1 53258U 22086S   22305.58334491 -.00012028  00000-0 -73882-3 0  9996,2 53258  53.2160 289.3510 0002466  32.2668  34.8949 15.08841074  1304,6917.877,95.437,541.448,538.036,0.0
53258.0,STARLINK-4127,PAYLOAD,2022-11-01 22:00:00,15.08842315,0.0002288,53.2162,287.8534,35.6774,43.0754,0.00031063,4.659e-05,0.0,0 STARLINK-4127,1 53258U 22086S   22305.91667824  .00004659  00000-0  31063-3 0  9996,2 53258  53.2162 287.8534 0002288  35.6774  43.0754 15.08842315  1307,6917.873000000001,95.437,541.321,538.156,0.0
53258.0,STARLINK-4127,PAYLOAD,2022-11-02 14:00:01,15.08832102,0.0002381999999999,53.2161,284.8601,30.4165,71.514,-0.00084752,-0.00013749,0.0,0 STARLINK-4127,1 53258U 22086S   22306.58334491 -.00013749  00000-0 -84752-3 0  9996,2 53258  53.2161 284.8601 0002382  30.4165  71.5140 15.08832102 16236,6917.905,95.438,541.4169999999998,538.122,0.0
53258.0,STARLINK-4127,PAYLOAD,2022-11-02 18:00:02,15.08808104,0.0002247,53.2167,284.1093,31.9592,255.8323,0.0027792,0.00044183,0.0,0 STARLINK-4127,1 53258U 22086S   22306.75002315  .00044183  00000-0  27792-2 0  9996,2 53258  53.2167 284.1093 0002247  31.9592 255.8323 15.08808104  1307,6917.978,95.44,541.3969999999998,538.288,0.0
53258.0,STARLINK-4127,PAYLOAD,2022-11-03 03:51:30,15.0883633,0.0002422,53.2181,282.2719,37.5773,322.5388,-1.7621e-05,-5.69e-06,0.0,0 STARLINK-4127,1 53258U 22086S   22307.16077398 -.00000569  00000-0 -17621-4 0  9999,2 53258  53.2181 282.2719 0002422  37.5773 322.5388 15.08836330 16328,6917.892,95.438,541.432,538.081,0.0
53258.0,STARLINK-4127,PAYLOAD,2022-11-03 08:37:39,15.088417000000002,0.0002392,53.2169,281.3767,35.9743,324.141,6.5894e-05,7.61e-06,0.0,0 STARLINK-4127,1 53258U 22086S   22307.35948558  .00000761  00000-0  65894-4 0  9992,2 53258  53.2169 281.3767 0002392  35.9743 324.1410 15.08841700 16356,6917.875,95.437,541.395,538.085,0.0
53258.0,STARLINK-4127,PAYLOAD,2022-11-04 02:06:53,15.0885088,0.0002374,53.2174,278.1047,36.4057,323.7096,6.6115e-05,7.64e-06,0.0,0 STARLINK-4127,1 53258U 22086S   22308.08811797  .00000764  00000-0  66115-4 0  9997,2 53258  53.2174 278.1047 0002374  36.4057 323.7096 15.08850880 16467,6917.847,95.437,541.354,538.07,0.0
53258.0,STARLINK-4127,PAYLOAD,2022-11-04 08:28:25,15.08849401,0.000231,53.2175,276.9173,34.4072,325.7069,5.6149e-05,6.06e-06,0.0,0 STARLINK-4127,1 53258U 22086S   22308.35307771  .00000606  00000-0  56149-4 0  9990,2 53258  53.2175 276.9173 0002310  34.4072 325.7069 15.08849401 16682,6917.852,95.437,541.315,538.119,0.0
53258.0,STARLINK-4127,PAYLOAD,2022-11-05 01:57:41,15.08839438,0.0002361,53.2176,273.6454,33.5639,326.5503,2.6473e-06,-2.46e-06,0.0,0 STARLINK-4127,1 53258U 22086S   22309.08172535 -.00000246  00000-0  26473-5 0  9998,2 53258  53.2176 273.6454 0002361  33.5639 326.5503 15.08839438 16618,6917.882,95.438,541.38,538.114,0.0
53258.0,STARLINK-4127,PAYLOAD,2022-11-05 09:54:37,15.08828876,0.0002396,53.2176,272.1586,35.223,324.892,-8.3891e-05,-1.623e-05,0.0,0 STARLINK-4127,1 53258U 22086S   22309.41293660 -.00001623  00000-0 -83891-4 0  9995,2 53258  53.2176 272.1586 0002396  35.2230 324.8920 15.08828876 16665,6917.9140000000025,95.438,541.437,538.122,0.0
53258.0,STARLINK-4127,PAYLOAD,2022-11-05 14:40:48,15.08817955,0.0002916,53.2175,271.2638,42.7542,317.3676,-0.00024195,-4.135e-05,0.0,0 STARLINK-4127,1 53258U 22086S   22309.61166961 -.00004135  00000-0 -24195-3 0  9992,2 53258  53.2175 271.2638 0002916  42.7542 317.3676 15.08817955 16693,6917.948,95.439,541.83,537.795,0.0
53258.0,STARLINK-4127,PAYLOAD,2022-11-06 04:59:16,15.08824212,0.0002377,53.2169,268.5909,30.3845,329.7284,-0.00023726,-4.061e-05,0.0,0 STARLINK-4127,1 53258U 22086S   22310.20783198 -.00004061  00000-0 -23726-3 0  9993,2 53258  53.2169 268.5909 0002377  30.3845 329.7284 15.08824212 16782,6917.929,95.439,541.438,538.149,0.0
53258.0,STARLINK-4127,PAYLOAD,2022-11-06 06:34:39,15.08827578,0.0002329,53.2169,268.2932,31.6154,328.4978,-0.00021521,-3.711e-05,0.0,0 STARLINK-4127,1 53258U 22086S   22310.27406940 -.00003711  00000-0 -21521-3 0  9999,2 53258  53.2169 268.2932 0002329  31.6154 328.4978 15.08827578 16974,6917.918000000002,95.438,541.395,538.172,0.0
53258.0,STARLINK-4127,PAYLOAD,2022-11-06 14:31:34,15.08832943,0.0002289,53.2172,266.8059,34.3963,325.7177,-9.0532e-05,-1.729e-05,0.0,0 STARLINK-4127,1 53258U 22086S   22310.60526380 -.00001729  00000-0 -90532-4 0  9993,2 53258  53.2172 266.8059 0002289  34.3963 325.7177 15.08832943 16844,6917.901999999999,95.438,541.35,538.183,0.0
53258.0,STARLINK-4127,PAYLOAD,2022-11-07 04:50:02,15.0884016,0.0002288,53.2172,264.1299,35.346,324.7684,0.00014258,1.982e-05,0.0,0 STARLINK-4127,1 53258U 22086S   22311.20141353  .00001982  00000-0  14258-3 0  9992,2 53258  53.2172 264.1299 0002288  35.3460 324.7684 15.08840160 16935,6917.88,95.438,541.328,538.1619999999998,0.0
53258.0,STARLINK-4127,PAYLOAD,2022-11-07 06:25:25,15.08838549,0.0002235,53.2173,263.8325,36.0167,324.0975,0.00012649,1.725e-05,0.0,0 STARLINK-4127,1 53258U 22086S   22311.26765515  .00001725  00000-0  12649-3 0  9997,2 53258  53.2173 263.8325 0002235  36.0167 324.0975 15.08838549 17122,6917.885,95.438,541.2959999999998,538.2040000000002,0.0
